[{"OBJECT_NAME":"SKYKRAFT-3D","OBJECT_ID":"2023-084BZ","EPOCH":"2026-03-09T21:28:04.330848","MEAN_MOTION":15.63935842,"ECCENTRICITY":0.00046011,"INCLINATION":97.5993,"RA_OF_ASC_NODE":219.3167,"ARG_OF_PERICENTER":265.5149,"MEAN_ANOMALY":94.5584,"EPHEMERIS_TYPE":0,"CLASSIFICATION_TYPE":"U","NORAD_CAT_ID":57956,"ELEMENT_SET_NO":999,"REV_AT_EPOCH":13957,"BSTAR":0.00079114811,"MEAN_MOTION_DOT":0.00074849,"MEAN_MOTION_DDOT":0},{"OBJECT_NAME":"PELICAN-1","OBJECT_ID":"2023-174AS","EPOCH":"2026-03-09T19:53:47.582880","MEAN_MOTION":15.63373922,"ECCENTRICITY":0.00095437,"INCLINATION":97.3971,"RA_OF_ASC_NODE":163.5879,"ARG_OF_PERICENTER":253.2057,"MEAN_ANOMALY":106.8154,"EPHEMERIS_TYPE":0,"CLASSIFICATION_TYPE":"U","NORAD_CAT_ID":58296,"ELEMENT_SET_NO":999,"REV_AT_EPOCH":13058,"BSTAR":0.0005960495,"MEAN_MOTION_DOT":0.00055098,"MEAN_MOTION_DDOT":0}]
